{"type": "FeatureCollection", "features": [ {"type": "Feature", "properties": {"norad_id": 30815, "name": "FENGYUN 1C DEB", "group": "fengyun-1c-debris", "lat": 64.93650235947396, "lon": -5.146820842877113, "alt_km": 643.7028811963992, "timestamp": "2025-12-22T22:44:21.254339+00:00", "meta": {"OBJECT_NAME": "FENGYUN 1C DEB", "OBJECT_ID": "1999-025AUZ", "EPOCH": "2025-12-22T00:00:14.649984", "MEAN_MOTION": 14.73969877, "ECCENTRICITY": 0.00028923, "INCLINATION": 99.2998, "RA_OF_ASC_NODE": 153.2568, "ARG_OF_PERICENTER": 269.2255, "MEAN_ANOMALY": 220.3187, "EPHEMERIS_TYPE": 0, "CLASSIFICATION_TYPE": "U", "NORAD_CAT_ID": 30815, "ELEMENT_SET_NO": 999, "REV_AT_EPOCH": 97916, "BSTAR": 0.0039771027, "MEAN_MOTION_DOT": 0.0002616, "MEAN_MOTION_DDOT": 0}, "tle": {"line1": "1 30815U 99025AUZ 25356.00016956  .00026160  00000+0  39771-2 0  9993", "line2": "2 30815  99.2998 153.2568 0002892 269.2255 220.3187 14.73969877979163"}}, "geometry": {"type": "Point", "coordinates": [-5.146820842877113, 64.93650235947396]}}, {"type": "Feature", "properties": {"norad_id": 30816, "name": "FENGYUN 1C DEB", "group": "fengyun-1c-debris", "lat": -24.018440173279586, "lon": -116.5431044049353, "alt_km": 874.6667896820236, "timestamp": "2025-12-22T22:44:21.254350+00:00", "meta": {"OBJECT_NAME": "FENGYUN 1C DEB", "OBJECT_ID": "1999-025AVA", "EPOCH": "2025-12-21T17:34:09.647040", "MEAN_MOTION": 14.18060149, "ECCENTRICITY": 0.00517771, "INCLINATION": 98.9138, "RA_OF_ASC_NODE": 66.2472, "ARG_OF_PERICENTER": 29.3431, "MEAN_ANOMALY": 93.6158, "EPHEMERIS_TYPE": 0, "CLASSIFICATION_TYPE": "U", "NORAD_CAT_ID": 30816, "ELEMENT_SET_NO": 999, "REV_AT_EPOCH": 96521, "BSTAR": 0.0012528706, "MEAN_MOTION_DOT": 2.558e-05, "MEAN_MOTION_DDOT": 0}, "tle": {"line1": "1 30816U 99025AVA 25355.73205610  .00002558  00000+0  12529-2 0  9997", "line2": "2 30816  98.9138  66.2472 0051777  29.3431  93.6158 14.18060149965213"}}, "geometry": {"type": "Point", "coordinates": [-116.5431044049353, -24.018440173279586]}}, {"type": "Feature", "properties": {"norad_id": 30817, "name": "FENGYUN 1C DEB", "group": "fengyun-1c-debris", "lat": 12.501234759521324, "lon": -15.198015067987509, "alt_km": 930.851185171271, "timestamp": "2025-12-22T22:44:21.254360+00:00", "meta": {"OBJECT_NAME": "FENGYUN 1C DEB", "OBJECT_ID": "1999-025AVB", "EPOCH": "2025-12-21T10:40:37.228512", "MEAN_MOTION": 14.00725647, "ECCENTRICITY": 0.00575445, "INCLINATION": 98.7854, "RA_OF_ASC_NODE": 345.3222, "ARG_OF_PERICENTER": 220.0513, "MEAN_ANOMALY": 139.6403, "EPHEMERIS_TYPE": 0, "CLASSIFICATION_TYPE": "U", "NORAD_CAT_ID": 30817, "ELEMENT_SET_NO": 999, "REV_AT_EPOCH": 96031, "BSTAR": 0.00012209363, "MEAN_MOTION_DOT": 1.42e-06, "MEAN_MOTION_DDOT": 0}, "tle": {"line1": "1 30817U 99025AVB 25355.44487533  .00000142  00000+0  12209-3 0  9995", "line2": "2 30817  98.7854 345.3222 0057544 220.0513 139.6403 14.00725647960312"}}, "geometry": {"type": "Point", "coordinates": [-15.198015067987509, 12.501234759521324]}}, {"type": "Feature", "properties": {"norad_id": 30820, "name": "FENGYUN 1C DEB", "group": "fengyun-1c-debris", "lat": -78.44195342595637, "lon": 141.37924924191122, "alt_km": 845.8752690227429, "timestamp": "2025-12-22T22:44:21.254371+00:00", "meta": {"OBJECT_NAME": "FENGYUN 1C DEB", "OBJECT_ID": "1999-025AVE", "EPOCH": "2025-12-20T01:01:00.867360", "MEAN_MOTION": 14.21453719, "ECCENTRICITY": 0.00521121, "INCLINATION": 98.6769, "RA_OF_ASC_NODE": 90.2187, "ARG_OF_PERICENTER": 166.8384, "MEAN_ANOMALY": 12.569, "EPHEMERIS_TYPE": 0, "CLASSIFICATION_TYPE": "U", "NORAD_CAT_ID": 30820, "ELEMENT_SET_NO": 999, "REV_AT_EPOCH": 96527, "BSTAR": 0.001235858, "MEAN_MOTION_DOT": 2.697e-05, "MEAN_MOTION_DDOT": 0}, "tle": {"line1": "1 30820U 99025AVE 25354.04237115  .00002697  00000+0  12359-2 0  9995", "line2": "2 30820  98.6769  90.2187 0052112 166.8384  12.5690 14.21453719965273"}}, "geometry": {"type": "Point", "coordinates": [141.37924924191122, -78.44195342595637]}}, {"type": "Feature", "properties": {"norad_id": 30821, "name": "FENGYUN 1C DEB", "group": "fengyun-1c-debris", "lat": -71.87743591002284, "lon": 169.67476168452484, "alt_km": 754.7320606610247, "timestamp": "2025-12-22T22:44:21.254381+00:00", "meta": {"OBJECT_NAME": "FENGYUN 1C DEB", "OBJECT_ID": "1999-025AVF", "EPOCH": "2025-12-22T15:05:10.178592", "MEAN_MOTION": 14.49720433, "ECCENTRICITY": 0.0086666, "INCLINATION": 99.1046, "RA_OF_ASC_NODE": 139.9918, "ARG_OF_PERICENTER": 176.3992, "MEAN_ANOMALY": 245.1641, "EPHEMERIS_TYPE": 0, "CLASSIFICATION_TYPE": "U", "NORAD_CAT_ID": 30821, "ELEMENT_SET_NO": 999, "REV_AT_EPOCH": 98932, "BSTAR": 0.00077555632, "MEAN_MOTION_DOT": 3.078e-05, "MEAN_MOTION_DDOT": 0}, "tle": {"line1": "1 30821U 99025AVF 25356.62859003  .00003078  00000+0  77556-3 0  9993", "line2": "2 30821  99.1046 139.9918 0086666 176.3992 245.1641 14.49720433989325"}}, "geometry": {"type": "Point", "coordinates": [169.67476168452484, -71.87743591002284]}}, {"type": "Feature", "properties": {"norad_id": 30822, "name": "FENGYUN 1C DEB", "group": "fengyun-1c-debris", "lat": -51.01576861668832, "lon": -166.2132310350789, "alt_km": 813.2435811619425, "timestamp": "2025-12-22T22:44:21.254391+00:00", "meta": {"OBJECT_NAME": "FENGYUN 1C DEB", "OBJECT_ID": "1999-025AVG", "EPOCH": "2025-12-21T14:02:44.488032", "MEAN_MOTION": 14.11353011, "ECCENTRICITY": 0.0073272, "INCLINATION": 98.7342, "RA_OF_ASC_NODE": 23.4111, "ARG_OF_PERICENTER": 259.9283, "MEAN_ANOMALY": 254.7343, "EPHEMERIS_TYPE": 0, "CLASSIFICATION_TYPE": "U", "NORAD_CAT_ID": 30822, "ELEMENT_SET_NO": 999, "REV_AT_EPOCH": 96826, "BSTAR": 0.00027186, "MEAN_MOTION_DOT": 4.61e-06, "MEAN_MOTION_DDOT": 0}, "tle": {"line1": "1 30822U 99025AVG 25355.58523713  .00000461  00000+0  27186-3 0  9991", "line2": "2 30822  98.7342  23.4111 0073272 259.9283 254.7343 14.11353011968260"}}, "geometry": {"type": "Point", "coordinates": [-166.2132310350789, -51.01576861668832]}}, {"type": "Feature", "properties": {"norad_id": 30823, "name": "FENGYUN 1C DEB", "group": "fengyun-1c-debris", "lat": 3.958821187855024, "lon": 136.96374559188243, "alt_km": 826.4540850577359, "timestamp": "2025-12-22T22:44:21.254401+00:00", "meta": {"OBJECT_NAME": "FENGYUN 1C DEB", "OBJECT_ID": "1999-025AVH", "EPOCH": "2025-12-19T21:48:58.565088", "MEAN_MOTION": 14.02564135, "ECCENTRICITY": 0.0134234, "INCLINATION": 98.7634, "RA_OF_ASC_NODE": 134.6515, "ARG_OF_PERICENTER": 64.6202, "MEAN_ANOMALY": 87.319, "EPHEMERIS_TYPE": 0, "CLASSIFICATION_TYPE": "U", "NORAD_CAT_ID": 30823, "ELEMENT_SET_NO": 999, "REV_AT_EPOCH": 96134, "BSTAR": 0.00016736, "MEAN_MOTION_DOT": 2.38e-06, "MEAN_MOTION_DDOT": 0}, "tle": {"line1": "1 30823U 99025AVH 25353.90901117  .00000238  00000+0  16736-3 0  9995", "line2": "2 30823  98.7634 134.6515 0134234  64.6202  87.3190 14.02564135961349"}}, "geometry": {"type": "Point", "coordinates": [136.96374559188243, 3.958821187855024]}}, {"type": "Feature", "properties": {"norad_id": 30826, "name": "FENGYUN 1C DEB", "group": "fengyun-1c-debris", "lat": 6.32605016225976, "lon": 14.051227441158526, "alt_km": 712.4774580967924, "timestamp": "2025-12-22T22:44:21.254411+00:00", "meta": {"OBJECT_NAME": "FENGYUN 1C DEB", "OBJECT_ID": "1999-025AVL", "EPOCH": "2025-12-20T19:47:26.677248", "MEAN_MOTION": 14.82301373, "ECCENTRICITY": 0.01448173, "INCLINATION": 98.8662, "RA_OF_ASC_NODE": 190.7086, "ARG_OF_PERICENTER": 331.2092, "MEAN_ANOMALY": 41.6036, "EPHEMERIS_TYPE": 0, "CLASSIFICATION_TYPE": "U", "NORAD_CAT_ID": 30826, "ELEMENT_SET_NO": 999, "REV_AT_EPOCH": 406, "BSTAR": 0.00035606275, "MEAN_MOTION_DOT": 3.34e-05, "MEAN_MOTION_DDOT": 0}, "tle": {"line1": "1 30826U 99025AVL 25354.82461432  .00003340  00000+0  35606-3 0  9995", "line2": "2 30826  98.8662 190.7086 0144817 331.2092  41.6036 14.82301373  4068"}}, "geometry": {"type": "Point", "coordinates": [14.051227441158526, 6.32605016225976]}}, {"type": "Feature", "properties": {"norad_id": 30827, "name": "FENGYUN 1C DEB", "group": "fengyun-1c-debris", "lat": 42.260112693394916, "lon": 171.12773875640048, "alt_km": 731.0172607982131, "timestamp": "2025-12-22T22:44:21.254422+00:00", "meta": {"OBJECT_NAME": "FENGYUN 1C DEB", "OBJECT_ID": "1999-025AVM", "EPOCH": "2025-12-22T05:24:17.025120", "MEAN_MOTION": 14.37918372, "ECCENTRICITY": 0.00439891, "INCLINATION": 99.0037, "RA_OF_ASC_NODE": 342.0879, "ARG_OF_PERICENTER": 150.3136, "MEAN_ANOMALY": 210.056, "EPHEMERIS_TYPE": 0, "CLASSIFICATION_TYPE": "U", "NORAD_CAT_ID": 30827, "ELEMENT_SET_NO": 999, "REV_AT_EPOCH": 96685, "BSTAR": 0.0026816406, "MEAN_MOTION_DOT": 8.15e-05, "MEAN_MOTION_DDOT": 0}, "tle": {"line1": "1 30827U 99025AVM 25356.22519705  .00008150  00000+0  26816-2 0  9995", "line2": "2 30827  99.0037 342.0879 0043989 150.3136 210.0560 14.37918372966858"}}, "geometry": {"type": "Point", "coordinates": [171.12773875640048, 42.260112693394916]}}, {"type": "Feature", "properties": {"norad_id": 30828, "name": "FENGYUN 1C DEB", "group": "fengyun-1c-debris", "lat": 20.894057188450837, "lon": -72.4632983122553, "alt_km": 494.79800235981565, "timestamp": "2025-12-22T22:44:21.254432+00:00", "meta": {"OBJECT_NAME": "FENGYUN 1C DEB", "OBJECT_ID": "1999-025AVN", "EPOCH": "2025-12-21T19:04:17.783328", "MEAN_MOTION": 14.77263453, "ECCENTRICITY": 0.02086675, "INCLINATION": 98.3758, "RA_OF_ASC_NODE": 103.1148, "ARG_OF_PERICENTER": 149.8617, "MEAN_ANOMALY": 1.144, "EPHEMERIS_TYPE": 0, "CLASSIFICATION_TYPE": "U", "NORAD_CAT_ID": 30828, "ELEMENT_SET_NO": 999, "REV_AT_EPOCH": 98790, "BSTAR": 0.0013165295, "MEAN_MOTION_DOT": 0.00013375, "MEAN_MOTION_DDOT": 0}, "tle": {"line1": "1 30828U 99025AVN 25355.79465027  .00013375  00000+0  13165-2 0  9992", "line2": "2 30828  98.3758 103.1148 0208667 149.8617   1.1440 14.77263453987901"}}, "geometry": {"type": "Point", "coordinates": [-72.4632983122553, 20.894057188450837]}}]}